#dP2011  1  1  0  0  0.00000000     289 d+D   IGS14 FIT AIUB
## 1616 518400.00000000   300.00000000 55562 0.0000000000000
+   52   G01G02G03G04G05G06G07G08G09G10G11G12G13G14G15G16G17
+        G18G19G20G21G22G23G24G25G26G27G28G29G30G31G32R01R02
+        R05R06R07R08R09R10R11R12R13R15R16R18R19R20R21R22R23
+        R24  0  0  0  0  0  0  0  0  0  0  0  0  0  0  0  0
+          0  0  0  0  0  0  0  0  0  0  0  0  0  0  0  0  0
++         4  1  1  1  1  1  1  1  1  1  1  1  1  1  1  1  1
++         1  1  1  1  1  1  1  1  1  1  1  1  1  1  1  2  2
++         3  3  3  3  2  2  2  2  2  3  3  3  3  3  2  2  2
++         2  0  0  0  0  0  0  0  0  0  0  0  0  0  0  0  0
++         0  0  0  0  0  0  0  0  0  0  0  0  0  0  0  0  0
%c M  cc GPS ccc cccc cccc cccc cccc ccccc ccccc ccccc ccccc
%c cc cc ccc ccc cccc cccc cccc cccc ccccc ccccc ccccc ccccc
%f  1.2500000  1.025000000  0.00000000000  0.000000000000000
%f  0.0000000  0.000000000  0.00000000000  0.000000000000000
%i    0    0    0    0      0      0      0      0         0
%i    0    0    0    0      0      0      0      0         0
/* CENTER FOR ORBIT DETERMINATION IN EUROPE (CODE)          
/* IGS-Repro3 GNSS orbits and clocks for year-day 2011-001  
/* Middle day of a 3-day long-arc GPS/GLO/GAL solution      
/* Product reference DOI: 10.7892/boris.135946              
/* PCV:IGS14      OL/AL:FES2014b NONE     YN ORB:CoN CLK:BRD
*  2011  1  1 23 30  0.00000000
PG01 -16170.426607  -8654.450734 -19367.896700   -196.481599
PG02  14232.253054   7802.393532 -21073.809589    312.230273
PG03 -23702.655657  -8516.698236   8520.243108    656.817131
PG04   9328.923469  17819.731492 -17368.153726    260.272335
PG05  24554.153037   -598.076419 -10255.339924    -92.246227
PG06 -22790.562766 -12564.421942   5954.585275    378.475036
PG07  -5600.600530  25849.716503   -172.132578      1.180708
PG08    727.226402  23770.149834  11242.805787      7.109552
PG09  13824.034963 -15145.265804  16331.756923     52.642944
PG10  14601.044815  10376.843833 -19924.688272    -62.046993
PG11 -12191.318714  16982.683873  15876.347564   -115.962211
PG12  23658.418542 -10883.250075  -4735.423411    -39.519592
PG13  -1778.152325  17231.407162 -20254.551603    287.252141
PG14 -14049.741655 -21250.526171   7910.941127    120.445855
PG15  17036.276213  -4181.751116  20004.381143   -165.616909
PG16 -22753.149591  -2853.462050 -13612.346250   -139.276368
PG17  13018.038847  21302.271221   9507.375614    180.883931
PG18   5194.767589 -17017.741125  19911.293809    113.603695
PG19 -19129.106844  -1155.916856  18529.095356    -97.554255
PG20 -20762.192564  14317.708938  -8365.067277     48.892609
PG21   4315.887342 -25827.878817   1669.437745   -113.648277
PG22  -7685.500421 -14159.921731  21291.056228    155.831990
PG23 -12237.422533   9181.620873 -21735.648537    334.681895
PG24 -15041.730903  16225.785356  14562.766684    352.976864
PG25  13137.656336 -16497.482441 -16162.853953    -61.285577
PG26  21165.344594  10165.486385  12239.326071    -86.163628
PG27  15341.788835  -7917.026101  20790.540590    222.762692
PG28   3667.119111  14735.296137  22292.328927     12.380740
PG29   3761.382726 -16269.950620 -20583.526204    174.972092
PG30 -14367.552974  -9894.152541 -20476.687087    309.881273
PG31  -9410.836411 -16066.894790 -18645.976868     25.052922
PG32 -25491.201358   6574.639838   -663.667178   -166.072926
PR01  12676.839675   7920.023242 -20675.801259   -181.433844
PR02  24566.654292   -544.669678  -6880.197902   -201.237983
PR05 -12595.686140  -7941.858835  20697.612820   -162.099682
PR06 -24349.755193    201.884780   7623.541918    -80.139640
PR07 -20630.981085  10157.787194 -11072.631530   -214.780979
PR08  -6392.266079  11589.224650 -21802.121249    -51.226894
PR09 -11627.589240    413.553553 -22722.464939    -51.276713
PR10 -13000.869335  16702.913349 -14179.372748   -106.071249
PR11  -7430.167151  24220.654504   3321.465031    -73.848674
PR12   2960.798543  16662.080174  18994.794314    -27.583324
PR13  11311.510727   -228.811710  22853.368669   -292.459477
PR15   6639.080721 -24122.011158  -4677.327807     39.981816
PR16  -2892.292204 -16863.662008 -18985.695552    -42.767171
PR18  -4245.368014 -18166.741334 -17434.955489    -27.579038
PR19 -15229.115521 -20369.070879  -1942.650744   -151.446090
PR20 -17601.133013 -10498.590431  15228.581741    -76.079119
PR21  -9697.478464   5230.617930  22991.142939   -218.864012
PR22   3935.707403  17897.485679  17667.723076     -2.280575
PR23  15465.778836  20202.713430   1865.462233   -233.966256
PR24  17818.745010  10658.554424 -14847.606936     37.513181
*  2011  1  1 23 35  0.00000000
PG01 -15484.719615  -8926.755194 -19798.556190   -196.482583
PG02  14077.798735   8587.781856 -20885.561500    312.230942
PG03 -23915.012128  -8780.936662   7665.862921    656.818499
PG04   9137.405338  18440.054187 -16795.917152    260.275291
PG05  24196.421567   -393.972061 -11080.465025    -92.248044
PG06 -22889.681933 -12767.974616   5054.167826    378.473022
PG07  -5672.017586  25809.633074  -1136.508015      1.180869
PG08    560.810148  24155.243188  10382.124659      7.109323
PG09  13758.598342 -14482.543333  16956.087762     52.643814
PG10  13895.260934  10633.678035 -20283.406557    -62.047547
PG11 -12328.787955  16343.997466  16431.172350   -115.962965
PG12  23837.891466 -10863.345341  -3789.562484    -39.518572
PG13  -2333.670017  16700.635102 -20642.930457    287.251712
PG14 -13789.638330 -21073.662147   8805.126593    120.446765
PG15  17591.470637  -3671.333544  19624.715103   -165.615701
PG16 -22261.410026  -3057.669769 -14350.714012   -139.277302
PG17  12697.555286  21102.682722  10351.835790    180.884116
PG18   5911.759736 -17200.367429  19534.304111    113.604326
PG19 -19583.649531  -1680.264658  18016.570908    -97.555316
PG20 -21077.111218  14329.391027  -7495.498770     48.892581
PG21   4448.407304 -25835.012287    726.162862   -113.649097
PG22  -6922.054753 -14413.322910  21380.651943    155.832099
PG23 -12850.524796   8630.676174 -21616.980937    334.681225
PG24 -14976.408946  15655.822468  15248.608737    352.977684
PG25  13723.557609 -16648.382259 -15507.488943    -61.286215
PG26  21467.237563  10531.427620  11427.338173    -86.166289
PG27  15257.818155  -7167.893200  21140.130892    222.763792
PG28   2888.560194  14963.398020  22245.714114     12.381322
PG29   4359.901517 -15746.485587 -20868.403090    174.972920
PG30 -13672.958628 -10196.860102 -20807.715577    309.882239
PG31  -9228.911399 -16759.181636 -18120.534916     25.054171
PG32 -25532.675803   6483.075394    294.068999   -166.075371
PR01  11826.794963   8042.436769 -21126.664026   -181.433848
PR02  24260.272561   -536.939794  -7892.550100   -201.238715
PR05 -11743.977451  -8065.874356  21145.607822   -162.099842
PR06 -24012.245584    191.976813   8625.514674    -80.139655
PR07 -21048.180323  10281.556030 -10132.565128   -214.780791
PR08  -7265.491093  11752.671279 -21437.856596    -51.226647
PR09 -11282.451633   -456.425839 -22892.533155    -51.276580
PR10 -12749.000674  16154.499572 -15021.381144   -106.070986
PR11  -7408.960261  24349.704118   2253.681423    -73.848697
PR12   2711.009244  17392.259200  18363.133152    -27.583307
PR13  10982.435974    655.472480  23004.696582   -292.459817
PR15   6634.465797 -24305.745036  -3611.891263     39.982144
PR16  -2649.658134 -17589.185042 -18354.176033    -42.767023
PR18  -3804.134149 -17583.658753 -18117.314368    -27.579081
PR19 -15206.307299 -20256.310250  -3010.184348   -151.446407
PR20 -18020.666182 -10941.004251  14405.870797    -76.079140
PR21 -10305.343680   4509.088909  22876.537675   -218.864404
PR22   3481.794823  17310.056433  18339.717567     -2.280346
PR23  15441.902473  20093.382891   2932.090716   -233.967425
PR24  18230.802918  11084.691669 -14010.480537     37.513947
EOF





================================================================================
IGSREPRO3
================================================================================



